NORAD_CAT_ID,OBJECT_NAME,OBJECT_TYPE,EPOCH,MEAN_MOTION,ECCENTRICITY,INCLINATION,RA_OF_ASC_NODE,ARG_OF_PERICENTER,MEAN_ANOMALY,BSTAR,MEAN_MOTION_DOT,MEAN_MOTION_DDOT,TLE_LINE0,TLE_LINE1,TLE_LINE2,SEMIMAJOR_AXIS,PERIOD,APOGEE,PERIGEE,DECAYED
53261.0,STARLINK-4062,PAYLOAD,2024-07-19 17:16:49,15.08844178,0.000105,53.2182,358.5078,83.5827,276.5285,0.00034819,5.259e-05,0.0,0 STARLINK-4062,1 53261U 22086V   24201.72001820  .00005259  00000-0  34819-3 0  9993,2 53261  53.2182 358.5078 0001050  83.5827 276.5285 15.08844178110794,6917.868,95.437,540.459,539.006,0.0
53261.0,STARLINK-4062,PAYLOAD,2024-07-20 13:56:50,15.08843523,0.0001221,53.2189,354.6476,91.9307,268.1825,0.00010912,1.449e-05,0.0,0 STARLINK-4062,1 53261U 22086V   24202.58113942  .00001449  00000-0  10912-3 0  9992,2 53261  53.2189 354.6476 0001221  91.9307 268.1825 15.08843523110921,6917.87,95.437,540.579,538.89,0.0
53261.0,STARLINK-4062,PAYLOAD,2024-07-20 17:07:36,15.08846058,0.0001198,53.2185,354.0511,75.7971,284.3154,0.0002126,3.098e-05,0.0,0 STARLINK-4062,1 53261U 22086V   24202.71361935  .00003098  00000-0  21260-3 0  9994,2 53261  53.2185 354.0511 0001198  75.7971 284.3154 15.08846058110764,6917.862,95.437,540.556,538.898,0.0
53261.0,STARLINK-4062,PAYLOAD,2024-07-21 10:36:51,15.08838062,0.0002204,53.2183,350.7787,76.5777,283.5461,2.7141e-05,1.44e-06,0.0,0 STARLINK-4062,1 53261U 22086V   24203.44226370  .00000144  00000-0  27141-4 0  9992,2 53261  53.2183 350.7787 0002204  76.5777 283.5461 15.08838062110872,6917.886,95.438,541.276,538.227,0.0
53261.0,STARLINK-4062,PAYLOAD,2024-07-21 13:47:38,15.08830367,0.0001589,53.2178,350.1855,84.0884,276.0289,-8.1404e-05,-1.583e-05,0.0,0 STARLINK-4062,1 53261U 22086V   24203.57474726 -.00001583  00000-0 -81404-4 0  9998,2 53261  53.2178 350.1855 0001589  84.0884 276.0289 15.08830367111072,6917.91,95.438,540.874,538.676,0.0
53261.0,STARLINK-4062,PAYLOAD,2024-07-21 15:23:01,15.08831136,0.0001533,53.2188,349.8893,85.1015,275.0152,-5.4705e-05,-1.158e-05,0.0,0 STARLINK-4062,1 53261U 22086V   24203.64098723 -.00001158  00000-0 -54705-4 0  9997,2 53261  53.2188 349.8893 0001533  85.1015 275.0152 15.08831136110901,6917.907,95.438,540.833,538.712,0.0
53261.0,STARLINK-4062,PAYLOAD,2024-07-22 18:24:34,15.08844986,0.0001257,53.218,344.8327,95.2631,264.8505,0.00019668,2.844e-05,0.0,0 STARLINK-4062,1 53261U 22086V   24204.76706354  .00002844  00000-0  19668-3 0  9996,2 53261  53.2180 344.8327 0001257  95.2631 264.8505 15.08844986111073,6917.865,95.437,540.6,538.861,0.0
53261.0,STARLINK-4062,PAYLOAD,2024-07-22 19:59:57,15.08845648,0.0001266,53.218,344.5347,96.0708,264.0429,0.00021079,3.069e-05,0.0,0 STARLINK-4062,1 53261U 22086V   24204.83330320  .00003069  00000-0  21079-3 0  9999,2 53261  53.2180 344.5347 0001266  96.0708 264.0429 15.08845648111260,6917.863,95.437,540.604,538.852,0.0
53261.0,STARLINK-4062,PAYLOAD,2024-07-23 18:15:21,15.08843022,0.000133,53.2175,340.3673,98.7057,261.4085,0.00014926,2.089e-05,0.0,0 STARLINK-4062,1 53261U 22086V   24205.76066477  .00002089  00000-0  14926-3 0  9995,2 53261  53.2175 340.3673 0001330  98.7057 261.4085 15.08843022111227,6917.871,95.437,540.656,538.816,0.0
53261.0,STARLINK-4062,PAYLOAD,2024-07-25 08:24:37,15.08836082,8.23e-05,53.2178,333.2347,95.5601,264.5485,8.0562e-05,9.95e-06,0.0,0 STARLINK-4062,1 53261U 22086V   24207.35043213  .00000995  00000-0  80562-4 0  9999,2 53261  53.2178 333.2347 0000823  95.5601 264.5485 15.08836082111467,6917.892,95.438,540.327,539.188,0.0
53261.0,STARLINK-4062,PAYLOAD,2024-07-25 17:56:55,15.08849312,0.0001287,53.2171,331.4484,95.5968,264.5171,0.00025157,3.719e-05,0.0,0 STARLINK-4062,1 53261U 22086V   24207.74786811  .00003719  00000-0  25157-3 0  9995,2 53261  53.2171 331.4484 0001287  95.5968 264.5171 15.08849312111522,6917.852,95.437,540.607,538.827,0.0
53261.0,STARLINK-4062,PAYLOAD,2024-07-26 01:53:51,15.08845864,0.0002061,53.2183,329.969,66.1857,293.9351,0.00015751,2.22e-05,0.0,0 STARLINK-4062,1 53261U 22086V   24208.07907182  .00002220  00000-0  15751-3 0  9993,2 53261  53.2183 329.9690 0002061  66.1857 293.9351 15.08845864111577,6917.862,95.437,541.153,538.302,0.0
53261.0,STARLINK-4062,PAYLOAD,2024-07-26 13:01:33,15.08850389,0.0001618,53.2167,327.8884,68.8961,291.2204,0.00019594,2.833e-05,0.0,0 STARLINK-4062,1 53261U 22086V   24208.54274851  .00002833  00000-0  19594-3 0  9994,2 53261  53.2167 327.8884 0001618  68.8961 291.2204 15.08850389111827,6917.849,95.437,540.833,538.594,0.0
53261.0,STARLINK-4062,PAYLOAD,2024-07-26 14:36:56,15.08857043,0.0001272,53.2164,327.5878,86.9147,273.1991,0.00028362,4.231e-05,0.0,0 STARLINK-4062,1 53261U 22086V   24208.60898315  .00004231  00000-0  28362-3 0  9995,2 53261  53.2164 327.5878 0001272  86.9147 273.1991 15.08857043111654,6917.828,95.436,540.573,538.813,0.0
53261.0,STARLINK-4062,PAYLOAD,2024-07-27 11:16:57,15.08839352,9e-05,53.2179,323.7161,106.1159,253.9933,-1.953e-05,-5.98e-06,0.0,0 STARLINK-4062,1 53261U 22086V   24209.47011090 -.00000598  00000-0 -19530-4 0  9990,2 53261  53.2179 323.7161 0000900 106.1159 253.9933 15.08839352111787,6917.882,95.438,540.37,539.125,0.0
53261.0,STARLINK-4062,PAYLOAD,2024-07-27 17:38:30,15.08840322,0.000151,53.2168,322.5327,85.5621,274.5543,1.4803e-05,-5.2e-07,0.0,0 STARLINK-4062,1 53261U 22086V   24209.73507190 -.00000052  00000-0  14803-4 0  9992,2 53261  53.2168 322.5327 0001510  85.5621 274.5543 15.08840322112009,6917.879,95.438,540.789,538.7,0.0
53261.0,STARLINK-4062,PAYLOAD,2024-07-28 12:43:07,15.08847762,0.0001611,53.2169,318.9647,89.0632,271.0544,0.00010744,1.423e-05,0.0,0 STARLINK-4062,1 53261U 22086V   24210.52994798  .00001423  00000-0  10744-3 0  9996,2 53261  53.2169 318.9647 0001611  89.0632 271.0544 15.08847762111947,6917.857,95.437,540.836,538.607,0.0
53261.0,STARLINK-4062,PAYLOAD,2024-07-28 15:53:53,15.08857295,0.0001523,53.2175,318.3698,99.7837,260.3327,0.00021086,3.071e-05,0.0,0 STARLINK-4062,1 53261U 22086V   24210.66241974  .00003071  00000-0  21086-3 0  9994,2 53261  53.2175 318.3698 0001523  99.7837 260.3327 15.08857295111965,6917.828,95.436,540.746,538.639,0.0
53261.0,STARLINK-4062,PAYLOAD,2024-07-28 23:50:49,15.08842059,0.0001214,53.2164,316.8799,85.7587,274.3544,0.00014267,1.984e-05,0.0,0 STARLINK-4062,1 53261U 22086V   24210.99362680  .00001984  00000-0  14267-3 0  9992,2 53261  53.2164 316.8799 0001214  85.7587 274.3544 15.08842059112017,6917.874,95.437,540.579,538.899,0.0
53261.0,STARLINK-4062,PAYLOAD,2024-07-29 14:09:17,15.08838876,0.0001624,53.2175,314.2059,93.1791,266.9387,5.9176e-05,6.54e-06,0.0,0 STARLINK-4062,1 53261U 22086V   24211.58979149  .00000654  00000-0  59176-4 0  9994,2 53261  53.2175 314.2059 0001624  93.1791 266.9387 15.08838876112288,6917.884,95.438,540.872,538.625,0.0
53261.0,STARLINK-4062,PAYLOAD,2024-07-30 15:35:28,15.08838553,0.0001653,53.2178,309.4476,85.2746,274.8435,-0.00010939,-2.029e-05,0.0,0 STARLINK-4062,1 53261U 22086V   24212.64963440 -.00002029  00000-0 -10939-3 0  9992,2 53261  53.2178 309.4476 0001653  85.2746 274.8435 15.08838553112266,6917.885,95.438,540.893,538.606,0.0
53261.0,STARLINK-4062,PAYLOAD,2024-07-31 12:15:28,15.08853976,0.0001971,53.2206,305.5791,71.7904,288.3303,0.00036766,5.57e-05,0.0,0 STARLINK-4062,1 53261U 22086V   24213.51074685  .00005570  00000-0  36766-3 0  9991,2 53261  53.2206 305.5791 0001971  71.7904 288.3303 15.08853976112398,6917.838,95.437,541.066,538.339,0.0
53261.0,STARLINK-4062,PAYLOAD,2024-07-31 13:50:51,15.0886083,0.0001715,53.2181,305.2806,76.0899,284.0284,0.00048775,7.487e-05,0.0,0 STARLINK-4062,1 53261U 22086V   24213.57698271  .00007487  00000-0  48775-3 0  9992,2 53261  53.2181 305.2806 0001715  76.0899 284.0284 15.08860830112580,6917.817,95.436,540.868,538.495,0.0
53261.0,STARLINK-4062,PAYLOAD,2024-07-31 15:26:14,15.08862686,0.0001646,53.2179,304.9831,79.5586,280.5591,0.00049843,7.658e-05,0.0,0 STARLINK-4062,1 53261U 22086V   24213.64322088  .00007658  00000-0  49843-3 0  9997,2 53261  53.2179 304.9831 0001646  79.5586 280.5591 15.08862686112599,6917.811,95.436,540.815,538.537,0.0
53261.0,STARLINK-4062,PAYLOAD,2024-08-01 12:06:15,15.08844347,0.0001335,53.2153,301.118,76.3357,283.7784,2.6016e-05,1.26e-06,0.0,0 STARLINK-4062,1 53261U 22086V   24214.50434660  .00000126  00000-0  26016-4 0  9994,2 53261  53.2153 301.1180 0001335  76.3357 283.7784 15.08844347112721,6917.867,95.437,540.656,538.809,0.0
53261.0,STARLINK-4062,PAYLOAD,2024-08-02 11:57:03,15.08826696,0.0001397,53.2161,296.6608,86.8345,273.2807,-0.00020196,-3.499e-05,0.0,0 STARLINK-4062,1 53261U 22086V   24215.49795890 -.00003499  00000-0 -20196-3 0  9998,2 53261  53.2161 296.6608 0001397  86.8345 273.2807 15.08826696112697,6917.921,95.438,540.752,538.82,0.0
53261.0,STARLINK-4062,PAYLOAD,2024-08-02 23:04:45,15.08840711,0.0001631,53.2185,294.5801,73.4627,286.6544,-1.5599e-05,-5.36e-06,0.0,0 STARLINK-4062,1 53261U 22086V   24215.96163813 -.00000536  00000-0 -15599-4 0  9995,2 53261  53.2185 294.5801 0001631  73.4627 286.6544 15.08840711112769,6917.878,95.438,540.872,538.615,0.0
53261.0,STARLINK-4062,PAYLOAD,2024-08-03 11:47:50,15.08849912,0.0001351,53.2166,292.2004,75.1309,284.9833,0.00049686,7.631e-05,0.0,0 STARLINK-4062,1 53261U 22086V   24216.49155776  .00007631  00000-0  49686-3 0  9997,2 53261  53.2166 292.2004 0001351  75.1309 284.9833 15.08849912113027,6917.85,95.437,540.65,538.78,0.0
53261.0,STARLINK-4062,PAYLOAD,2024-08-04 05:17:05,15.08850176,0.0001409,53.2166,288.9305,67.3723,292.7418,0.00031934,4.799e-05,0.0,0 STARLINK-4062,1 53261U 22086V   24217.22019718  .00004799  00000-0  31934-3 0  9993,2 53261  53.2166 288.9305 0001409  67.3723 292.7418 15.08850176112951,6917.849,95.437,540.689,538.74,0.0
53261.0,STARLINK-4062,PAYLOAD,2024-08-04 14:49:23,15.08857451,0.0001206,53.2155,287.1455,80.731,279.3818,0.00044564,6.815e-05,0.0,0 STARLINK-4062,1 53261U 22086V   24217.61763523  .00006815  00000-0  44564-3 0  9990,2 53261  53.2155 287.1455 0001206  80.7310 279.3818 15.08857451113197,6917.827,95.436,540.526,538.858,0.0
